     2.100          NAVIGATION                              RINEX VERSION / TYPE
fic2rin                                 01/12/2009 04:06:26 PGM / RUN BY / DATE
                                                            END OF HEADER
 5 09  1 11 16  0  0.0 -.528045464307D-03 -.602540239925D-10  .000000000000D+00
     .420000000000D+02 -.153093750000D+03  .461983529183D-08 -.110959351960D-01
    -.811368227005D-05  .938013475388D-02  .109095126390D-04  .515365098953D+04
     .576000000000D+05 -.931322574615D-07 -.202115641236D+00  .108033418655D-06
     .945240627466D+00  .164031250000D+03  .129459040361D+01 -.825462955274D-08
    -.385730352932D-10  .100000000000D+01  .151400000000D+04  .000000000000D+00
     .340000000000D+01  .000000000000D+00 -.419095158577D-08  .420000000000D+02
     .504060000000D+05  .400000000000D+01
 6 09  1 11 16  0  0.0  .955876894295D-04 -.120508047985D-10  .000000000000D+00
     .720000000000D+02  .148125000000D+02  .531807866218D-08 -.254865822219D+00
     .767409801483D-06  .562881911173D-02  .949949026108D-05  .515370671844D+04
     .576000000000D+05 -.372529029846D-07  .895100649289D+00 -.931322574615D-08
     .933512568294D+00  .184000000000D+03 -.148267187965D+01 -.833856162028D-08
     .757174396496D-09  .100000000000D+01  .151400000000D+04  .000000000000D+00
     .240000000000D+01  .000000000000D+00 -.465661287308D-08  .720000000000D+02
     .504060000000D+05  .400000000000D+01
 7 09  1 11 16  0  0.0  .233743339777D-04 -.113686837722D-12  .000000000000D+00
     .830000000000D+02 -.683125000000D+02  .470626746350D-08  .202744436342D+01
    -.352598726749D-05  .229587638751D-02 -.178813934326D-06  .515368267059D+04
     .576000000000D+05  .484287738800D-07 -.115459415830D+01  .447034835815D-07
     .965399847796D+00  .384781250000D+03  .291469977073D+01 -.852035490698D-08
    -.146791828755D-09  .100000000000D+01  .151400000000D+04  .000000000000D+00
     .240000000000D+01  .000000000000D+00 -.107102096081D-07  .830000000000D+02
     .504060000000D+05  .400000000000D+01
 8 09  1 11 16  0  0.0 -.185936689377D-03 -.159161572810D-11  .000000000000D+00
     .100000000000D+01 -.750000000000D+02  .414624413628D-08  .135712190503D+01
    -.382773578167D-05  .105003480567D-01  .607222318649D-06  .515369326591D+04
     .576000000000D+05  .614672899246D-07 -.109702979041D+01  .121071934700D-06
     .986606889051D+00  .379562500000D+03  .297011927542D+01 -.822962851135D-08
    -.305727020472D-09  .100000000000D+01  .151400000000D+04  .000000000000D+00
     .240000000000D+01  .000000000000D+00 -.419095158577D-08  .257000000000D+03
     .504060000000D+05  .400000000000D+01
 9 09  1 11 16  0  0.0  .344538129866D-04  .193267624127D-11  .000000000000D+00
     .150000000000D+03 -.647187500000D+02  .467483758289D-08  .109065782982D+01
    -.371411442757D-05  .201456489740D-01  .800937414169D-07  .515365287590D+04
     .576000000000D+05 -.394880771637D-06 -.118962144225D+01 -.199303030968D-06
     .974343107816D+00  .388875000000D+03  .145600834267D+01 -.881679582636D-08
    -.182150444440D-09  .100000000000D+01  .151400000000D+04  .000000000000D+00
     .340000000000D+01  .000000000000D+00 -.558793544769D-08  .150000000000D+03
     .504060000000D+05  .400000000000D+01
10 09  1 11 16  0  0.0 -.934116542339D-05 -.568434188608D-12  .000000000000D+00
     .940000000000D+02  .664062500000D+02  .416053044565D-08 -.155543219351D+01
     .332109630108D-05  .844388757832D-02  .119768083096D-04  .515376873589D+04
     .576000000000D+05  .135973095894D-06  .305861913515D+01 -.109896063805D-06
     .960675876121D+00  .148250000000D+03  .579316876016D+00 -.760460247650D-08
    -.450733060555D-09  .100000000000D+01  .151400000000D+04  .000000000000D+00
     .340000000000D+01  .000000000000D+00 -.279396772385D-08  .940000000000D+02
     .504060000000D+05  .400000000000D+01
11 09  1 11 16  0  0.0  .108303502202D-04 -.102318153949D-11  .000000000000D+00
     .930000000000D+02 -.243750000000D+01  .687171480593D-08  .188265968735D+01
    -.178813934326D-06  .912842701655D-02  .411272048950D-05  .515365258026D+04
     .576000000000D+05 -.253319740295D-06  .178191330444D+01  .242143869400D-07
     .889490412583D+00  .264031250000D+03  .674722455161D+00 -.917252492962D-08
    -.867893294096D-10  .100000000000D+01  .151400000000D+04  .000000000000D+00
     .340000000000D+01  .000000000000D+00 -.121071934700D-07  .930000000000D+02
     .504060000000D+05  .400000000000D+01
12 09  1 11 16  0  0.0 -.326440669596D-03  .329691829393D-11  .000000000000D+00
     .107000000000D+03 -.147218750000D+03  .402945355720D-08  .223062406837D+01
    -.778026878834D-05  .311483943369D-02  .120215117931D-04  .515375478745D+04
     .576000000000D+05  .540167093277D-07 -.103523004354D+00  .298023223877D-07
     .966244053932D+00  .149937500000D+03 -.823760562625D+00 -.773532220722D-08
     .135719938995D-10  .100000000000D+01  .151400000000D+04  .000000000000D+00
     .240000000000D+01  .000000000000D+00 -.116415321827D-07  .107000000000D+03
     .504060000000D+05  .400000000000D+01
13 09  1 11 16  0  0.0  .284576322883D-03  .136424205266D-11  .000000000000D+00
     .170000000000D+02  .146250000000D+03  .373336979555D-08 -.175084261410D+01
     .767782330513D-05  .365920737386D-02  .476092100143D-05  .515376917267D+04
     .576000000000D+05  .260770320892D-07 -.214883373466D+01  .707805156708D-07
     .995236557952D+00  .305812500000D+03  .150939703327D+01 -.784711257802D-08
     .350728894981D-09  .100000000000D+01  .151400000000D+04  .000000000000D+00
     .240000000000D+01  .000000000000D+00 -.111758708954D-07  .170000000000D+02
     .504060000000D+05  .400000000000D+01
14 09  1 11 16  0  0.0 -.169680919498D-03  .511590769747D-11  .000000000000D+00
     .620000000000D+02  .171125000000D+03  .383194533019D-08 -.218283312116D+01
     .884197652340D-05  .445727875922D-02  .492669641972D-05  .515356552887D+04
     .576000000000D+05  .577419996262D-07 -.216749495321D+01 -.111758708954D-06
     .988847968367D+00  .301250000000D+03 -.209985417821D+01 -.789068582159D-08
     .430017911972D-09  .100000000000D+01  .151400000000D+04  .000000000000D+00
     .240000000000D+01  .000000000000D+00 -.931322574615D-08  .620000000000D+02
     .504060000000D+05  .400000000000D+01
15 09  1 11 16  0  0.0 -.240613706410D-03 -.568434188608D-11  .000000000000D+00
     .540000000000D+02  .164781250000D+03  .453233164695D-08 -.157576869611D+01
     .859797000885D-05  .136597943492D-02  .507943332195D-05  .515356802368D+04
     .576000000000D+05  .689178705215D-07 -.221570222789D+01  .800937414169D-07
     .957054359510D+00  .283906250000D+03 -.844795336500D+00 -.826355849609D-08
     .396802242692D-09  .100000000000D+01  .151400000000D+04  .000000000000D+00
     .240000000000D+01  .000000000000D+00 -.977888703346D-08  .540000000000D+02
     .504060000000D+05  .400000000000D+01
16 09  1 11 16  0  0.0  .827307812870D-04 -.261479726760D-11  .000000000000D+00
     .350000000000D+02 -.153687500000D+03  .398873757550D-08 -.296606495743D+00
    -.801123678684D-05  .494894094300D-02  .112876296043D-04  .515375505257D+04
     .576000000000D+05  .689178705215D-07 -.867970216158D-01 -.875443220139D-07
     .967787748496D+00  .164250000000D+03 -.385478125374D+00 -.780568228086D-08
     .439304013061D-10  .100000000000D+01  .151400000000D+04  .000000000000D+00
     .240000000000D+01  .000000000000D+00 -.977888703346D-08  .350000000000D+02
     .504060000000D+05  .400000000000D+01
18 09  1 11 16  0  0.0 -.941054895520D-04  .363797880709D-11  .000000000000D+00
     .480000000000D+02  .679375000000D+02  .459483425043D-08 -.168267103537D+00
     .350736081600D-05  .988702930044D-02  .125337392092D-04  .515375574875D+04
     .576000000000D+05  .409781932831D-07  .306611935668D+01  .894069671631D-07
     .944730823922D+00  .131250000000D+03 -.243906434333D+01 -.807605068564D-08
    -.616097091488D-09  .100000000000D+01  .151400000000D+04  .000000000000D+00
     .240000000000D+01  .000000000000D+00 -.107102096081D-07  .480000000000D+02
     .504060000000D+05  .400000000000D+01
19 09  1 11 16  0  0.0  .339574180543D-04 -.454747350886D-12  .000000000000D+00
     .490000000000D+02  .211562500000D+02  .484020161383D-08 -.211695532922D+01
     .110827386379D-05  .505027081817D-02  .892393290997D-05  .515376734924D+04
     .576000000000D+05 -.113621354103D-06  .101107725435D+01 -.577419996262D-07
     .957157231909D+00  .207937500000D+03 -.394097464610D+00 -.798247535928D-08
     .705743682771D-09  .100000000000D+01  .151400000000D+04  .000000000000D+00
     .240000000000D+01  .000000000000D+00 -.144354999065D-07  .490000000000D+02
     .504060000000D+05  .400000000000D+01
20 09  1 11 16  0  0.0  .939425081015D-04 -.102318153949D-11  .000000000000D+00
     .800000000000D+02  .405937500000D+02  .463090718159D-08 -.301813663408D-01
     .209920108318D-05  .384353159461D-02  .122338533401D-04  .515370368195D+04
     .576000000000D+05 -.117346644402D-06  .301240364245D+01  .912696123123D-07
     .944298613553D+00  .134906250000D+03  .131177261198D+01 -.795568852922D-08
    -.579309844866D-09  .100000000000D+01  .151400000000D+04  .000000000000D+00
     .240000000000D+01  .000000000000D+00 -.651925802231D-08  .800000000000D+02
     .504060000000D+05  .400000000000D+01
21 09  1 11 16  0  0.0  .343476422131D-04 -.170530256582D-11  .000000000000D+00
     .420000000000D+02 -.167812500000D+02  .573345310705D-08  .109217672646D+01
    -.616535544395D-06  .145410906989D-01  .533834099770D-05  .515363959503D+04
     .576000000000D+05 -.782310962677D-07  .200785970417D+01  .173225998878D-06
     .934358041317D+00  .264375000000D+03 -.265474804797D+01 -.867607567909D-08
    -.590738892360D-09  .100000000000D+01  .151400000000D+04  .000000000000D+00
     .240000000000D+01  .000000000000D+00 -.116415321827D-07  .420000000000D+02
     .504060000000D+05  .400000000000D+01
